{
  "type": "FeatureCollection",
  "features": [
    {
      "type": "Feature",
      "properties": {
        "norad_id": 50032,
        "name": "COSMOS 1408 DEB",
        "group": "cosmos-1408-debris",
        "lat": 12.67371012456488,
        "lon": 45.48152749800537,
        "alt_km": 439.3182829322377,
        "timestamp": "2025-12-27T02:10:16.459896+00:00",
        "meta_object_name": "COSMOS 1408 DEB",
        "meta_object_id": "1982-092RU",
        "meta_epoch": "2025-12-26T13:41:14.334720",
        "meta_mean_motion": 15.45830643,
        "meta_eccentricity": 0.0016663,
        "meta_inclination": 82.5631,
        "meta_ra_of_asc_node": 44.3315,
        "meta_arg_of_pericenter": 157.9043,
        "meta_mean_anomaly": 202.2928,
        "meta_ephemeris_type": 0,
        "meta_classification_type": "U",
        "meta_norad_cat_id": 50032,
        "meta_element_set_no": 999,
        "meta_rev_at_epoch": 22817,
        "meta_bstar": 0.0001035,
        "meta_mean_motion_dot": 5.085e-05,
        "meta_mean_motion_ddot": 0,
        "tle_line1": "1 50032U 82092RU  25360.57030480  .00005085  00000+0  10350-3 0  9993",
        "tle_line2": "2 50032  82.5631  44.3315 0016663 157.9043 202.2928 15.45830643228172"
      },
      "geometry": {
        "type": "Point",
        "coordinates": [
          45.48152749800537,
          12.67371012456488
        ]
      }
    },
    {
      "type": "Feature",
      "properties": {
        "norad_id": 50058,
        "name": "COSMOS 1408 DEB",
        "group": "cosmos-1408-debris",
        "lat": 75.1859936115953,
        "lon": -155.07176267307253,
        "alt_km": 359.78734908681326,
        "timestamp": "2025-12-27T02:10:16.459918+00:00",
        "meta_object_name": "COSMOS 1408 DEB",
        "meta_object_id": "1982-092SW",
        "meta_epoch": "2025-12-26T13:27:27.815040",
        "meta_mean_motion": 15.64941928,
        "meta_eccentricity": 0.0015789,
        "meta_inclination": 82.6117,
        "meta_ra_of_asc_node": 54.8668,
        "meta_arg_of_pericenter": 51.6481,
        "meta_mean_anomaly": 308.6195,
        "meta_ephemeris_type": 0,
        "meta_classification_type": "U",
        "meta_norad_cat_id": 50058,
        "meta_element_set_no": 999,
        "meta_rev_at_epoch": 23020,
        "meta_bstar": 0.00032591,
        "meta_mean_motion_dot": 0.00032187,
        "meta_mean_motion_ddot": 0,
        "tle_line1": "1 50058U 82092SW  25360.56073860  .00032187  00000+0  32591-3 0  9993",
        "tle_line2": "2 50058  82.6117  54.8668 0015789  51.6481 308.6195 15.64941928230205"
      },
      "geometry": {
        "type": "Point",
        "coordinates": [
          -155.07176267307253,
          75.1859936115953
        ]
      }
    },
    {
      "type": "Feature",
      "properties": {
        "norad_id": 50404,
        "name": "COSMOS 1408 DEB",
        "group": "cosmos-1408-debris",
        "lat": 5.433546191328539,
        "lon": 19.56944885279587,
        "alt_km": 415.9625943423707,
        "timestamp": "2025-12-27T02:10:16.459939+00:00",
        "meta_object_name": "COSMOS 1408 DEB",
        "meta_object_id": "1982-092ADS",
        "meta_epoch": "2025-12-26T12:44:23.535744",
        "meta_mean_motion": 15.16044724,
        "meta_eccentricity": 0.0165811,
        "meta_inclination": 82.2023,
        "meta_ra_of_asc_node": 200.8914,
        "meta_arg_of_pericenter": 151.3558,
        "meta_mean_anomaly": 209.691,
        "meta_ephemeris_type": 0,
        "meta_classification_type": "U",
        "meta_norad_cat_id": 50404,
        "meta_element_set_no": 999,
        "meta_rev_at_epoch": 21402,
        "meta_bstar": 0.0031822,
        "meta_mean_motion_dot": 0.00087949,
        "meta_mean_motion_ddot": 0,
        "tle_line1": "1 50404U 82092ADS 25360.53082796  .00087949  00000+0  31822-2 0  9994",
        "tle_line2": "2 50404  82.2023 200.8914 0165811 151.3558 209.6910 15.16044724214026"
      },
      "geometry": {
        "type": "Point",
        "coordinates": [
          19.56944885279587,
          5.433546191328539
        ]
      }
    },
    {
      "type": "Feature",
      "properties": {
        "norad_id": 50621,
        "name": "COSMOS 1408 DEB",
        "group": "cosmos-1408-debris",
        "lat": 82.32461426347822,
        "lon": 163.66567295309963,
        "alt_km": 368.139964472015,
        "timestamp": "2025-12-27T02:10:16.459951+00:00",
        "meta_object_name": "COSMOS 1408 DEB",
        "meta_object_id": "1982-092ALR",
        "meta_epoch": "2025-12-26T04:11:24.957024",
        "meta_mean_motion": 15.573508,
        "meta_eccentricity": 0.0029295,
        "meta_inclination": 82.5694,
        "meta_ra_of_asc_node": 60.187,
        "meta_arg_of_pericenter": 104.4386,
        "meta_mean_anomaly": 256.0123,
        "meta_ephemeris_type": 0,
        "meta_classification_type": "U",
        "meta_norad_cat_id": 50621,
        "meta_element_set_no": 999,
        "meta_rev_at_epoch": 22459,
        "meta_bstar": 0.00035611,
        "meta_mean_motion_dot": 0.00026635,
        "meta_mean_motion_ddot": 0,
        "tle_line1": "1 50621U 82092ALR 25360.17459441  .00026635  00000+0  35611-3 0  9996",
        "tle_line2": "2 50621  82.5694  60.1870 0029295 104.4386 256.0123 15.57350800224590"
      },
      "geometry": {
        "type": "Point",
        "coordinates": [
          163.66567295309963,
          82.32461426347822
        ]
      }
    }
  ]
}